     2              NAVIGATION DATA     G (GPS)             RINEX VERSION / TYPE
teqc  1997Sep28                         19980919 02:35:23UTCPGM / RUN BY / DATE
HP-UX 10.20|PA-RISC|cc A.10.32.03|=+|=|                     COMMENT
                                                            END OF HEADER
27 98  9 18 10  0  0.0 4.169112071395D-05 1.136868377216D-12 0.000000000000D+00
    8.900000000000D+01 4.393750000000D+01 4.804842998140D-09 1.359780846410D+00
    2.458691596985D-06 1.290864392649D-02 9.901821613312D-06 5.153762542725D+03
    4.680000000000D+05-4.097819328308D-08-2.756251831855D+00 1.825392246246D-07
    9.410836126185D-01 1.780312500000D+02-3.033277177884D+00-8.169268854267D-09
    3.796586714504D-10 0.000000000000D+00 9.750000000000D+02 0.000000000000D+00
    3.200000000000D+01 0.000000000000D+00 4.656612873077D-10 8.900000000000D+01
    4.610100000000D+05
 4 98  9 18 10  0  0.0 1.271348446608D-05 3.535660653142D-11 0.000000000000D+00
    5.000000000000D+01 9.246875000000D+01 4.205532320159D-09 1.792877293199D+00
    4.943460226059D-06 4.659666796215D-03 8.383765816689D-06 5.153638448715D+03
    4.680000000000D+05 6.705522537231D-08 4.308689740737D-01-8.195638656616D-08
    9.774221670880D-01 2.211875000000D+02-7.866821680585D-01-7.920329913532D-09
    2.175090601254D-10 0.000000000000D+00 9.750000000000D+02 0.000000000000D+00
    3.200000000000D+01 0.000000000000D+00 2.328306436539D-09 3.060000000000D+02
    4.610700000000D+05
 5 98  9 18 10  0  0.0 1.646061427891D-04 1.705302565824D-12 0.000000000000D+00
    1.870000000000D+02-3.781250000000D+00 5.469156383745D-09 2.062077586974D+00
   -4.731118679047D-07 1.301709213294D-03 3.628432750702D-06 5.153566064835D+03
    4.680000000000D+05 7.823109626770D-08-1.717280436766D+00 3.352761268616D-08
    9.402942512812D-01 2.973125000000D+02-3.653585764569D-01-8.675718521357D-09
    3.428714248282D-11 0.000000000000D+00 9.750000000000D+02 0.000000000000D+00
    3.200000000000D+01 0.000000000000D+00 2.328306436539D-09 4.430000000000D+02
    4.612500000000D+05
 8 98  9 18 10  0  0.0 1.040478236973D-04 8.117240213323D-11 0.000000000000D+00
    1.890000000000D+02 4.765625000000D+01 4.538760486164D-09 4.043899476416D-01
    2.406537532806D-06 9.750295663252D-03 9.359791874886D-06 5.153656558990D+03
    4.680000000000D+05-1.024454832077D-07-2.702380151540D+00-1.117587089539D-07
    9.581149473219D-01 1.984375000000D+02 1.803473783774D+00-8.236414508296D-09
    5.128785063056D-10 0.000000000000D+00 9.750000000000D+02 0.000000000000D+00
    3.200000000000D+01 0.000000000000D+00 1.396983861923D-09 4.450000000000D+02
    4.612500000000D+05
26 98  9 18 10  0  0.0 4.119081422687D-04 5.809397407575D-11 0.000000000000D+00
    3.900000000000D+01-8.815625000000D+01 4.211961159374D-09-2.022576342595D+00
   -4.593282938004D-06 1.067789690569D-02 1.046061515808D-05 5.153699193954D+03
    4.680000000000D+05-1.266598701477D-07 2.512542979237D+00-8.195638656616D-08
    9.595578322010D-01 1.796250000000D+02-1.623257777488D-01-7.921758544469D-09
   -1.442917246152D-10 0.000000000000D+00 9.750000000000D+02 0.000000000000D+00
    3.200000000000D+01 0.000000000000D+00 0.000000000000D+00 2.950000000000D+02
    4.612800000000D+05
24 98  9 18 10  0  0.0 7.281517609954D-04-2.000888343900D-11 0.000000000000D+00
    8.900000000000D+01 8.750000000000D+01 3.926949287486D-09 2.237544687609D+00
    4.418194293976D-06 8.307886891998D-03 8.724629878998D-06 5.153712411880D+03
    4.680000000000D+05 2.980232238770D-08 4.367184900495D-01-1.657754182816D-07
    9.872806783974D-01 2.206875000000D+02-1.817931942128D+00-7.664604975848D-09
    2.553677799502D-10 0.000000000000D+00 9.750000000000D+02 0.000000000000D+00
    3.200000000000D+01 0.000000000000D+00-9.313225746155D-10 6.010000000000D+02
    4.613100000000D+05
 7 98  9 18  9 59 44.0 7.912050932646D-04 1.364242052659D-12 0.000000000000D+00
    1.020000000000D+02-3.206250000000D+01 4.539474801632D-09-1.790267530731D+00
   -1.609325408936D-06 1.024547696579D-02 1.072324812412D-05 5.153747364044D+03
    4.679840000000D+05 1.434236764908D-07-6.484160925615D-01-3.725290298462D-08
    9.579449781849D-01 1.676250000000D+02-2.214256423022D+00-7.869613515277D-09
   -3.050127050035D-10 0.000000000000D+00 9.750000000000D+02 0.000000000000D+00
    3.200000000000D+01 0.000000000000D+00-9.313225746155D-10 1.020000000000D+02
    4.614000000000D+05
 9 98  9 18 10  0  0.0-1.098960638046D-05-1.591615728103D-12 0.000000000000D+00
    5.400000000000D+01 4.790625000000D+01 4.714124933654D-09 2.380952485668D+00
    2.533197402954D-06 7.931273197755D-03 9.605661034584D-06 5.153664831161D+03
    4.680000000000D+05-1.918524503708D-07-2.739818750185D+00-2.607703208923D-08
    9.439504141808D-01 1.836875000000D+02 3.733778793617D-01-8.140696235531D-09
    5.553802766749D-10 0.000000000000D+00 9.750000000000D+02 0.000000000000D+00
    3.200000000000D+01 0.000000000000D+00 5.122274160385D-09 3.100000000000D+02
    4.614000000000D+05
30 98  9 18 10  0  0.0-9.731389582157D-06-1.477928890381D-12 0.000000000000D+00
    1.200000000000D+01-7.031250000000D+00 5.345579807713D-09-4.972126381250D-01
   -5.085021257401D-07 5.094212014228D-03 4.092231392860D-06 5.153734123230D+03
    4.680000000000D+05-4.097819328308D-08-1.690316420807D+00-2.607703208923D-08
    9.476447841119D-01 2.983437500000D+02 1.574908503204D+00-8.667503893471D-09
    6.071681481333D-12 0.000000000000D+00 9.750000000000D+02 0.000000000000D+00
    3.200000000000D+01 0.000000000000D+00 3.259629011154D-09 2.680000000000D+02
    4.652400000000D+05
16 98  9 18  9 59 44.0 7.998105138540D-05 1.705302565824D-12 0.000000000000D+00
    1.830000000000D+02-3.093750000000D+01 4.772698802062D-09 6.782847821066D-01
   -1.577660441399D-06 3.234201692976D-03 2.140179276466D-06 5.153670652390D+03
    4.679840000000D+05 3.166496753693D-08 1.508317645496D+00 7.823109626770D-08
    9.695842908947D-01 3.386250000000D+02 2.197583645151D-01-8.486782079967D-09
   -2.617966191657D-10 0.000000000000D+00 9.750000000000D+02 0.000000000000D+00
    3.200000000000D+01 0.000000000000D+00-2.328306436539D-09 1.830000000000D+02
    4.657800000000D+05
 2 98  9 18  9 59 28.0-5.333027802408D-04-4.433786671143D-12 0.000000000000D+00
    1.700000000000D+01 4.375000000000D+00 5.681665235591D-09-5.751640816869D-01
    6.034970283508D-07 1.832089968957D-02 3.982335329056D-06 5.153654447556D+03
    4.679680000000D+05 2.980232238770D-08-1.734991767977D+00 3.241002559662D-07
    9.373881776830D-01 2.924062500000D+02-2.249130851042D+00-8.971087967537D-09
    9.536111503035D-11 0.000000000000D+00 9.750000000000D+02 0.000000000000D+00
    3.200000000000D+01 0.000000000000D+00-2.328306436539D-09 2.730000000000D+02
    4.664700000000D+05
 1 98  9 18 10  0  0.0 5.936762318015D-05 1.136868377216D-12 0.000000000000D+00
    1.030000000000D+02-7.575000000000D+01 4.293035965037D-09-2.341258858783D+00
   -3.948807716370D-06 4.128898377530D-03 1.065619289875D-05 5.153711763382D+03
    4.680000000000D+05 1.005828380585D-07 2.530760976033D+00-8.940696716309D-08
    9.565624269732D-01 1.750000000000D+02-1.673698857853D+00-7.827468902641D-09
   -3.003696544589D-10 0.000000000000D+00 9.750000000000D+02 0.000000000000D+00
    3.200000000000D+01 0.000000000000D+00 4.656612873077D-10 3.590000000000D+02
    4.667100000000D+05
 6 98  9 18 10  0  0.0-6.910413503647D-07 0.000000000000D+00 0.000000000000D+00
    1.950000000000D+02-2.553125000000D+01 4.559118477013D-09 2.500467639405D+00
   -1.311302185059D-06 6.942548439838D-03 1.077353954315D-05 5.153668874741D+03
    4.680000000000D+05-8.195638656616D-08-6.160844516932D-01-9.126961231232D-08
    9.558856518114D-01 1.731562500000D+02-2.529479309115D+00-7.898543291746D-09
   -3.264421690552D-10 0.000000000000D+00 9.750000000000D+02 0.000000000000D+00
    3.200000000000D+01 0.000000000000D+00 1.862645149231D-09 1.950000000000D+02
    4.678800000000D+05
 4 98  9 18 12  0  0.0 1.296726986766D-05 3.524291969370D-11 0.000000000000D+00
    4.500000000000D+01 9.925000000000D+01 4.262677557630D-09 2.842961534816D+00
    5.297362804413D-06 4.659768892452D-03 8.733943104744D-06 5.153639062881D+03
    4.752000000000D+05 7.636845111847D-08 4.308110205740D-01 1.266598701477D-07
    9.774243161146D-01 2.193750000000D+02-7.865662566704D-01-7.924972964077D-09
    3.875161416028D-10 0.000000000000D+00 9.750000000000D+02 0.000000000000D+00
    3.200000000000D+01 0.000000000000D+00 2.328306436539D-09 3.010000000000D+02
    4.683900000000D+05
16 98  9 18 12  0  0.0 7.999315857887D-05 1.705302565824D-12 0.000000000000D+00
    1.840000000000D+02-3.096875000000D+01 4.803057209469D-09 1.730656100110D+00
   -1.512467861176D-06 3.234306699596D-03 2.527609467506D-06 5.153671562195D+03
    4.752000000000D+05-2.048909664154D-08 1.508256359469D+00 1.247972249985D-07
    9.695824110449D-01 3.350312500000D+02 2.199053702271D-01-8.471781455131D-09
   -2.389385241772D-10 0.000000000000D+00 9.750000000000D+02 0.000000000000D+00
    3.200000000000D+01 0.000000000000D+00-2.328306436539D-09 1.840000000000D+02
    4.685100000000D+05
 5 98  9 18 12  0  0.0 1.646187156439D-04 1.705302565824D-12 0.000000000000D+00
    1.880000000000D+02 2.968750000000D+00 5.378081161525D-09 3.112737119664D+00
    2.253800630569D-07 1.302551012486D-03 3.419816493988D-06 5.153564184189D+03
    4.752000000000D+05-1.117587089539D-08-1.717343083307D+00 2.235174179077D-08
    9.402949081315D-01 2.992500000000D+02-3.657641061260D-01-8.626787911772D-09
    9.571827276455D-11 0.000000000000D+00 9.750000000000D+02 0.000000000000D+00
    3.200000000000D+01 0.000000000000D+00 2.328306436539D-09 4.440000000000D+02
    4.685700000000D+05
